{"fetched_at":"2026-03-30T06:02:59Z","count":15439,"tles":[{"name":"STARLINK-31858","line1":"1 59658U 24084E   26087.89594131  .00001792  00000+0  74600-4 0  9993","line2":"2 59658  43.0030 293.0619 0001294 268.2183  91.8521 15.27587108107313","category":"Starlink"}]}