{
  "norad_id": 59658,
  "name": "STARLINK-31858",
  "history": [
    {
      "epoch": "2026-03-28T21:30:09.329184",
      "apogee_km": 483.9156469397949,
      "perigee_km": 482.13997748639395,
      "latitude_deg": 41.58827743853472,
      "longitude_deg": -128.18963423999958,
      "semi_major_axis_km": 6861.164812213094,
      "eccentricity": 0.0001294,
      "inclination_deg": 43.003,
      "raan_deg": 293.0619,
      "arg_perigee_deg": 268.2183,
      "mean_anomaly_deg": 91.8521,
      "mean_motion_rev_day": 15.27587108
    }
  ]
}